[{"OBJECT_NAME":"STARLINK-3044","OBJECT_ID":"2021-104AG","EPOCH":"2026-03-09T16:26:48.595488","MEAN_MOTION":15.08823972,"ECCENTRICITY":0.00012566,"INCLINATION":53.2183,"RA_OF_ASC_NODE":209.075,"ARG_OF_PERICENTER":84.3371,"MEAN_ANOMALY":275.7764,"EPHEMERIS_TYPE":0,"CLASSIFICATION_TYPE":"U","NORAD_CAT_ID":49438,"ELEMENT_SET_NO":999,"REV_AT_EPOCH":23891,"BSTAR":-9.1469672e-5,"MEAN_MOTION_DOT":-1.743e-5,"MEAN_MOTION_DDOT":0},{"OBJECT_NAME":"HAMSAT (VO-52)","OBJECT_ID":"2005-017B","EPOCH":"2026-03-09T22:34:09.009120","MEAN_MOTION":15.08773202,"ECCENTRICITY":0.00200128,"INCLINATION":97.9995,"RA_OF_ASC_NODE":87.8294,"ARG_OF_PERICENTER":17.3795,"MEAN_ANOMALY":342.8113,"EPHEMERIS_TYPE":0,"CLASSIFICATION_TYPE":"U","NORAD_CAT_ID":28650,"ELEMENT_SET_NO":999,"REV_AT_EPOCH":13179,"BSTAR":0.00045282519,"MEAN_MOTION_DOT":7.08e-5,"MEAN_MOTION_DDOT":0}]
